NORAD_CAT_ID,OBJECT_NAME,OBJECT_TYPE,EPOCH,MEAN_MOTION,ECCENTRICITY,INCLINATION,RA_OF_ASC_NODE,ARG_OF_PERICENTER,MEAN_ANOMALY,BSTAR,MEAN_MOTION_DOT,MEAN_MOTION_DDOT,TLE_LINE0,TLE_LINE1,TLE_LINE2,SEMIMAJOR_AXIS,PERIOD,APOGEE,PERIGEE,DECAYED
52108.0,STARLINK-3698,PAYLOAD,2023-01-12 22:01:20,15.08824079,0.0001434,53.2165,209.627,56.1461,303.9668,9.6561e-05,1.249e-05,0.0,0 STARLINK-3698,1 52108U 22029W   23012.91760257  .00001249  00000-0  96561-4 0  9993,2 52108  53.2165 209.6270 0001434  56.1461 303.9668 15.08824079 46909,6917.929,95.439,540.786,538.802,0.0
52108.0,STARLINK-3698,PAYLOAD,2023-01-13 12:19:48,15.08832108,0.0001431,53.2165,206.9505,57.9678,302.1453,0.00014716,2.054e-05,0.0,0 STARLINK-3698,1 52108U 22029W   23013.51376122  .00002054  00000-0  14716-3 0  9990,2 52108  53.2165 206.9505 0001431  57.9678 302.1453 15.08832108 46990,6917.905,95.438,540.759,538.78,0.0
52108.0,STARLINK-3698,PAYLOAD,2023-01-13 21:52:07,15.08840485,0.0001469,53.2164,205.1665,58.7628,301.3507,0.00015102,2.116e-05,0.0,0 STARLINK-3698,1 52108U 22029W   23013.91119741  .00002116  00000-0  15102-3 0  9995,2 52108  53.2164 205.1665 0001469  58.7628 301.3507 15.08840485 47058,6917.879,95.438,540.76,538.7280000000001,0.0
52108.0,STARLINK-3698,PAYLOAD,2023-01-14 20:07:31,15.088412300000002,0.0001546,53.2157,201.0034,62.3798,297.7351,8.439e-05,1.055e-05,0.0,0 STARLINK-3698,1 52108U 22029W   23014.83856168  .00001055  00000-0  84390-4 0  9995,2 52108  53.2157 201.0034 0001546  62.3798 297.7351 15.08841230 47199,6917.877,95.437,540.811,538.672,0.0
52108.0,STARLINK-3698,PAYLOAD,2023-01-15 12:01:23,15.08841623,0.0001608,53.2156,198.03,62.3917,297.7238,2.712e-05,1.44e-06,0.0,0 STARLINK-3698,1 52108U 22029W   23015.50096339  .00000144  00000-0  27120-4 0  9992,2 52108  53.2156 198.0300 0001608  62.3917 297.7238 15.08841623 47292,6917.875,95.437,540.8530000000001,538.628,0.0
52108.0,STARLINK-3698,PAYLOAD,2023-01-15 18:22:55,15.08844726,0.0001585999999999,53.2159,196.8393,65.2777,294.838,5.1623e-05,5.34e-06,0.0,0 STARLINK-3698,1 52108U 22029W   23015.76592013  .00000534  00000-0  51623-4 0  9998,2 52108  53.2159 196.8393 0001586  65.2777 294.8380 15.08844726 47332,6917.866,95.437,540.828,538.634,0.0
52108.0,STARLINK-3698,PAYLOAD,2023-01-16 05:30:37,15.08844735,0.0001603,53.2162,194.758,63.9578,296.1579,2.8824e-05,1.71e-06,0.0,0 STARLINK-3698,1 52108U 22029W   23016.22960033  .00000171  00000-0  28824-4 0  9995,2 52108  53.2162 194.7580 0001603  63.9578 296.1579 15.08844735 47408,6917.866,95.437,540.84,538.622,0.0
52108.0,STARLINK-3698,PAYLOAD,2023-01-16 11:52:10,15.08838315,0.0001551,53.2168,193.5697,67.04899999999999,293.0665,3.408e-05,2.54e-06,0.0,0 STARLINK-3698,1 52108U 22029W   23016.49456452  .00000254  00000-0  34080-4 0  9992,2 52108  53.2168 193.5697 0001551  67.0490 293.0665 15.08838315 47443,6917.886,95.438,540.8240000000001,538.678,0.0
52108.0,STARLINK-3698,PAYLOAD,2023-01-16 18:13:42,15.08841113,0.0001521999999999,53.2176,192.3807,63.9456,296.1693,2.3363000000000003e-05,8.4e-07,0.0,0 STARLINK-3698,1 52108U 22029W   23016.75952340  .00000084  00000-0  23363-4 0  9991,2 52108  53.2176 192.3807 0001522  63.9456 296.1693 15.08841113 47486,6917.877,95.437,540.795,538.689,0.0
52108.0,STARLINK-3698,PAYLOAD,2023-01-17 11:42:57,15.08836644,0.0001412,53.2172,189.1091,73.6452,286.4695,2.2774000000000003e-05,7.5e-07,0.0,0 STARLINK-3698,1 52108U 22029W   23017.48816674  .00000075  00000-0  22774-4 0  9996,2 52108  53.2172 189.1091 0001412  73.6452 286.4695 15.08836644 47592,6917.891,95.438,540.732,538.779,0.0
52108.0,STARLINK-3698,PAYLOAD,2023-01-17 18:04:30,15.08838793,0.0001416999999999,53.2172,187.9198,73.016,287.0987,3.812e-05,3.19e-06,0.0,0 STARLINK-3698,1 52108U 22029W   23017.75312546  .00000319  00000-0  38120-4 0  9998,2 52108  53.2172 187.9198 0001417  73.0160 287.0987 15.08838793 47634,6917.884,95.438,540.729,538.769,0.0
52108.0,STARLINK-3698,PAYLOAD,2023-01-18 09:58:21,15.08836504,0.0001369,53.217,184.9461,74.1674,285.9469,6.5706e-05,7.58e-06,0.0,0 STARLINK-3698,1 52108U 22029W   23018.41552765  .00000758  00000-0  65706-4 0  9998,2 52108  53.2170 184.9461 0001369  74.1674 285.9469 15.08836504 47731,6917.891,95.438,540.703,538.809,0.0
52108.0,STARLINK-3698,PAYLOAD,2023-01-18 11:33:44,15.08835904,0.0001345,53.2168,184.6488,74.226,285.8881,6.0048000000000005e-05,6.68e-06,0.0,0 STARLINK-3698,1 52108U 22029W   23018.48176824  .00000668  00000-0  60048-4 0  9997,2 52108  53.2168 184.6488 0001345  74.2260 285.8881 15.08835904 47741,6917.893,95.438,540.688,538.827,0.0
52108.0,STARLINK-3698,PAYLOAD,2023-01-18 14:44:30,15.0883777,0.0001349,53.2171,184.0547,70.1339,289.9798,8.782399999999999e-05,1.11e-05,0.0,0 STARLINK-3698,1 52108U 22029W   23018.61424639  .00001110  00000-0  87824-4 0  9996,2 52108  53.2171 184.0547 0001349  70.1339 289.9798 15.08837770 47768,6917.887,95.438,540.685,538.819,0.0
52108.0,STARLINK-3698,PAYLOAD,2023-01-19 11:24:32,15.0883074,0.0001311,53.218,180.1904,82.6069,277.5072,5.835e-06,-1.95e-06,0.0,0 STARLINK-3698,1 52108U 22029W   23019.47537497 -.00000195  00000-0  58350-5 0  9994,2 52108  53.2180 180.1904 0001311  82.6069 277.5072 15.08830740 47891,6917.909000000001,95.438,540.681,538.867,0.0
52108.0,STARLINK-3698,PAYLOAD,2023-01-20 03:18:23,15.08837831,0.0001338,53.2187,177.2166,83.3404,276.7741,5.524e-05,5.91e-06,0.0,0 STARLINK-3698,1 52108U 22029W   23020.13777100  .00000591  00000-0  55240-4 0  9999,2 52108  53.2187 177.2166 0001338  83.3404 276.7741 15.08837831 47998,6917.887,95.438,540.678,538.826,0.0
52108.0,STARLINK-3698,PAYLOAD,2023-01-20 09:39:55,15.08841095,0.0001301,53.2182,176.0266,83.455,276.6591,8.5525e-05,1.074e-05,0.0,0 STARLINK-3698,1 52108U 22029W   23020.40272828  .00001074  00000-0  85525-4 0  9992,2 52108  53.2182 176.0266 0001301  83.4550 276.6591 15.08841095 48039,6917.877,95.437,540.6419999999999,538.842,0.0
52108.0,STARLINK-3698,PAYLOAD,2023-01-21 03:09:10,15.08831766,0.00015,53.217,172.7573,79.1912,280.9249,5.1823e-05,5.37e-06,0.0,0 STARLINK-3698,1 52108U 22029W   23021.13137669  .00000537  00000-0  51823-4 0  9993,2 52108  53.2170 172.7573 0001500  79.1912 280.9249 15.08831766 48149,6917.906,95.438,540.808,538.7330000000001,0.0
52108.0,STARLINK-3698,PAYLOAD,2023-01-21 09:30:44,15.08818826,0.0001826,53.2181,171.5662,79.8152,280.3046,-3.7717e-05,-8.88e-06,0.0,0 STARLINK-3698,1 52108U 22029W   23021.39635110 -.00000888  00000-0 -37717-4 0  9992,2 52108  53.2181 171.5662 0001826  79.8152 280.3046 15.08818826 48186,6917.945,95.439,541.073,538.547,0.0
52108.0,STARLINK-3698,PAYLOAD,2023-01-22 02:59:58,15.08834193,0.0001409999999999,53.2182,168.2943,78.5239,281.5912,4.158e-05,3.74e-06,0.0,0 STARLINK-3698,1 52108U 22029W   23022.12498560  .00000374  00000-0  41580-4 0  9991,2 52108  53.2182 168.2943 0001410  78.5239 281.5912 15.08834193 48295,6917.898,95.438,540.739,538.788,0.0
52108.0,STARLINK-3698,PAYLOAD,2023-01-22 09:21:30,15.08840594,0.0001078,53.2167,167.1044,73.1385,286.9725,9.6401e-05,1.247e-05,0.0,0 STARLINK-3698,1 52108U 22029W   23022.38993973  .00001247  00000-0  96401-4 0  9999,2 52108  53.2167 167.1044 0001078  73.1385 286.9725 15.08840594 48339,6917.879,95.438,540.489,538.998,0.0
52108.0,STARLINK-3698,PAYLOAD,2023-01-22 18:53:48,15.08854327,0.0001456,53.2167,165.3211,67.7047,292.4099,0.00016264,2.302e-05,0.0,0 STARLINK-3698,1 52108U 22029W   23022.78736932  .00002302  00000-0  16264-3 0  9994,2 52108  53.2167 165.3211 0001456  67.7047 292.4099 15.08854327 48390,6917.837,95.437,540.7090000000001,538.694,0.0
52108.0,STARLINK-3698,PAYLOAD,2023-01-23 02:50:45,15.08832593,0.0001144,53.2179,163.8336,73.3467,286.765,6.7428e-05,7.85e-06,0.0,0 STARLINK-3698,1 52108U 22029W   23023.11858204  .00000785  00000-0  67428-4 0  9991,2 52108  53.2179 163.8336 0001144  73.3467 286.7650 15.08832593 48443,6917.903,95.438,540.559,538.977,0.0
52108.0,STARLINK-3698,PAYLOAD,2023-01-23 18:44:35,15.08848018,0.0001646,53.2179,160.8604,76.5849,283.5327,0.00028421,4.239e-05,0.0,0 STARLINK-3698,1 52108U 22029W   23023.78097144  .00004239  00000-0  28421-3 0  9999,2 52108  53.2179 160.8604 0001646  76.5849 283.5327 15.08848018 48540,6917.856,95.437,540.86,538.582,0.0
52108.0,STARLINK-3698,PAYLOAD,2023-01-24 13:49:13,15.08848061,0.0001745,53.2174,157.2922,84.9478,275.1713,-3.6374e-05,-8.67e-06,0.0,0 STARLINK-3698,1 52108U 22029W   23024.57585557 -.00000867  00000-0 -36374-4 0  9999,2 52108  53.2174 157.2922 0001745  84.9478 275.1713 15.08848061 48666,6917.856,95.437,540.928,538.514,0.0
52108.0,STARLINK-3698,PAYLOAD,2023-01-25 13:40:00,15.08843257,0.0001521999999999,53.2171,152.8319,90.361,269.7557,6.2271e-06,-1.89e-06,0.0,0 STARLINK-3698,1 52108U 22029W   23025.56945428 -.00000189  00000-0  62271-5 0  9998,2 52108  53.2171 152.8319 0001522  90.3610 269.7557 15.08843257 48810,6917.87,95.437,540.788,538.683,0.0
52108.0,STARLINK-3698,PAYLOAD,2023-01-25 15:15:23,15.0884311,0.0001346,53.2176,152.5352,83.7921,276.3225,6.5613e-05,7.57e-06,0.0,0 STARLINK-3698,1 52108U 22029W   23025.63569342  .00000757  00000-0  65613-4 0  9995,2 52108  53.2176 152.5352 0001346  83.7921 276.3225 15.08843110 48829,6917.871,95.437,540.6669999999999,538.805,0.0
52108.0,STARLINK-3698,PAYLOAD,2023-01-26 13:30:47,15.08841847,0.0001405,53.2188,148.3725,92.8367,267.2786,9.6973e-05,1.256e-05,0.0,0 STARLINK-3698,1 52108U 22029W   23026.56305362  .00001256  00000-0  96973-4 0  9996,2 52108  53.2188 148.3725 0001405  92.8367 267.2786 15.08841847 48961,6917.875,95.437,540.712,538.768,0.0
52108.0,STARLINK-3698,PAYLOAD,2023-01-27 00:38:29,15.08834613,0.0001404,53.2183,146.2904,85.4661,274.6492,0.00025868,3.831e-05,0.0,0 STARLINK-3698,1 52108U 22029W   23027.02673485  .00003831  00000-0  25868-3 0  9997,2 52108  53.2183 146.2904 0001404  85.4661 274.6492 15.08834613 49034,6917.897,95.438,540.7330000000001,538.7909999999999,0.0
